[{"OBJECT_NAME":"NAPA-2","OBJECT_ID":"2021-059CN","EPOCH":"2026-03-09T23:29:49.102656","MEAN_MOTION":15.70952391,"ECCENTRICITY":0.00036606,"INCLINATION":97.6849,"RA_OF_ASC_NODE":256.4978,"ARG_OF_PERICENTER":316.466,"MEAN_ANOMALY":43.6312,"EPHEMERIS_TYPE":0,"CLASSIFICATION_TYPE":"U","NORAD_CAT_ID":48963,"ELEMENT_SET_NO":999,"REV_AT_EPOCH":26212,"BSTAR":0.00074486022,"MEAN_MOTION_DOT":0.00093758,"MEAN_MOTION_DDOT":0},{"OBJECT_NAME":"STARLINK-11485 [DTC]","OBJECT_ID":"2024-231M","EPOCH":"2026-03-09T13:36:44.750304","MEAN_MOTION":15.69764195,"ECCENTRICITY":0.0001931,"INCLINATION":53.1574,"RA_OF_ASC_NODE":101.7656,"ARG_OF_PERICENTER":37.3684,"MEAN_ANOMALY":322.7468,"EPHEMERIS_TYPE":0,"CLASSIFICATION_TYPE":"U","NORAD_CAT_ID":62229,"ELEMENT_SET_NO":999,"REV_AT_EPOCH":7339,"BSTAR":0.0015953,"MEAN_MOTION_DOT":0.00197796,"MEAN_MOTION_DDOT":0}]
